ONEWEB-0098             
1 45442U 20020U   25106.39076788  .00030314  00000+0  85489-1 0  9990
2 45442  87.8794 106.1366 0001516  83.8077 276.3224 13.11198389246702
ONEWEB-0055             
1 45443U 20020V   25106.22131532  .00000571  00000+0  15741-2 0  9999
2 45443  87.8795 106.1735 0001901  89.2099 270.9246 13.11416748246667
ONEWEB-0093             
1 45444U 20020W   25106.42578051 -.00000084  00000+0 -27365-3 0  9990
2 45444  87.8794 106.1157 0001996  81.4829 278.6525 13.11420240246751
ONEWEB-0029             
1 45445U 20020X   25106.06280031  .00000496  00000+0  13625-2 0  9997
2 45445  87.8795 106.2021 0002058  83.9390 276.1973 13.11418575246684
ONEWEB-0068             
1 45446U 20020Y   25106.42551298 -.00000097  00000+0 -30912-3 0  9992
2 45446  87.8792 106.1170 0002095  85.2988 274.8379 13.11418420246678
ONEWEB-0046             
1 45447U 20020Z   25106.41718437 -.00000950  00000+0 -27183-2 0  9995
2 45447  87.8801 106.1316 0002850  97.0130 263.1323 13.11408784246684
ONEWEB-0063             
1 45448U 20020AA  25106.06451739  .00000590  00000+0  16284-2 0  9994
2 45448  87.8795 106.1976 0002139  96.0241 264.1131 13.11416664246719
ONEWEB-0019             
1 45449U 20020AB  25106.42055067 -.00000291  00000+0 -85587-3 0  9992
2 45449  87.8797 106.1415 0001720  91.3725 268.7600 13.11416707246618
